{
  "norad_id": 66821,
  "name": "STARLINK-35966",
  "history": [
    {
      "epoch": "2026-03-28T20:47:19.779360Z",
      "apogee_km": 573.8591298315214,
      "perigee_km": 570.2151535290386,
      "latitude_deg": -6.199352853478097e-05,
      "longitude_deg": 148.17876083487096,
      "height_km": 574.4341535633248,
      "semi_major_axis_km": 6950.17414168028,
      "eccentricity": 0.00026215,
      "inclination_deg": 70.0006,
      "raan_deg": 286.2917,
      "arg_perigee_deg": 270.9469,
      "mean_anomaly_deg": 89.1389,
      "mean_motion_rev_day": 14.98336063
    },
    {
      "epoch": "2026-03-28T22:23:27.833856Z",
      "apogee_km": 573.8661707779038,
      "perigee_km": 570.2075992448326,
      "latitude_deg": -4.352971277181575e-05,
      "longitude_deg": 123.9111055419083,
      "height_km": 574.4305441024338,
      "semi_major_axis_km": 6950.173885011368,
      "eccentricity": 0.0002632,
      "inclination_deg": 70.0005,
      "raan_deg": 286.1234,
      "arg_perigee_deg": 271.0482,
      "mean_anomaly_deg": 89.0375,
      "mean_motion_rev_day": 14.98336146
    }
  ]
}